*******************************************************************************
Ephemeris / WWW_USER Mon Mar 24 07:25:55 2025 Pasadena, USA      / Horizons    
*******************************************************************************
Target body name: (2018 PN20)                     {source: JPL#3}
Center body name: Earth (399)                     {source: DE441}
Center-site name: Mauna Kea
*******************************************************************************
Start time      : A.D. 2018-Sep-26 04:24:00.0000 UT      
Stop  time      : A.D. 2018-Sep-26 16:02:00.0000 UT      
Step-size       : 1 minutes
*******************************************************************************
Target pole/equ : undefined
Target radii    : undefined                                                    
Center geodetic : 204.5278, 19.8260847, 4.21024   {E-lon(deg),Lat(deg),Alt(km)}
Center cylindric: 204.5278, 6006.35451, 2151.0229 {E-lon(deg),Dxy(km),Dz(km)}
Center pole/equ : ITRF93                          {East-longitude positive}
Center radii    : 6378.137, 6378.137, 6356.752 km {Equator_a, b, pole_c}       
Target primary  : Sun
Vis. interferer : MOON (R_eq= 1737.400) km        {source: DE441}
Rel. light bend : Sun                             {source: DE441}
Rel. lght bnd GM: 1.3271E+11 km^3/s^2                                          
Small-body perts: Yes                             {source: SB441-N16}
Atmos refraction: NO (AIRLESS)
RA format       : HMS
Time format     : CAL 
Calendar mode   : Mixed Julian/Gregorian
RTS-only print  : NO       
EOP file        : eop.250321.p250617                                           
EOP coverage    : DATA-BASED 1962-JAN-20 TO 2025-MAR-21. PREDICTS-> 2025-JUN-16
Units conversion: 1 au= 149597870.700 km, c= 299792.458 km/s, 1 day= 86400.0 s 
Table cut-offs 1: Elevation (-90.0deg=NO ),Airmass (>38.000=NO), Daylight (YES)
Table cut-offs 2: Solar elongation (  0.0,180.0=NO ),Local Hour Angle( 0.0=NO )
Table cut-offs 3: RA/DEC angular rate (     0.0=NO )                           
*******************************************************************************
Initial IAU76/J2000 heliocentric ecliptic osculating elements (au, days, deg.):
  EPOCH=  2458343.5 ! 2018-Aug-13.00 (TDB)         Residual RMS= .1225         
   EC= .3775096637251725   QR= 1.051585063958075   TP= 2458346.3972912203      
   OM= 142.6884316149991   W=  180.4368328240348   IN= 18.91630320954361       
  Equivalent ICRF heliocentric cartesian coordinates (au, au/d):
   X= 8.077039416640637E-01  Y=-6.245728834467501E-01  Z=-2.534674905132982E-01
  VX= 1.177737749455786E-02 VY= 1.576958466977457E-02 VZ=-1.142216194306418E-04
Asteroid physical parameters (km, seconds, rotational period in hours):        
   GM= n.a.                RAD= n.a.               ROTPER= n.a.                
   H= 25.1                 G= .150                 B-V= n.a.                   
                           ALBEDO= n.a.            STYP= n.a.                  
*******************************************************************************
 Date__(UT)__HR:MN     R.A._________(ICRF)_________DEC
******************************************************
$$SOE
 2018-Sep-26 12:36  m  03 19 21.360750 -54 35 14.14490
 2018-Sep-26 12:37  m  03 19 21.334858 -54 35 13.91193
 2018-Sep-26 12:38  m  03 19 21.308951 -54 35 13.67849
 2018-Sep-26 12:39  m  03 19 21.283030 -54 35 13.44456
 2018-Sep-26 12:40  m  03 19 21.257094 -54 35 13.21015
 2018-Sep-26 12:41  m  03 19 21.231145 -54 35 12.97526
 2018-Sep-26 12:42  m  03 19 21.205182 -54 35 12.73989
 2018-Sep-26 12:43  m  03 19 21.179205 -54 35 12.50403
 2018-Sep-26 12:44  m  03 19 21.153215 -54 35 12.26769
 2018-Sep-26 12:45  m  03 19 21.127213 -54 35 12.03087
 2018-Sep-26 12:46  m  03 19 21.101198 -54 35 11.79357
 2018-Sep-26 12:47  m  03 19 21.075171 -54 35 11.55578
 2018-Sep-26 12:48  m  03 19 21.049132 -54 35 11.31751
 2018-Sep-26 12:49  m  03 19 21.023081 -54 35 11.07876
 2018-Sep-26 12:50  m  03 19 20.997019 -54 35 10.83952
 2018-Sep-26 12:51  m  03 19 20.970946 -54 35 10.59979
 2018-Sep-26 12:52  m  03 19 20.944863 -54 35 10.35959
 2018-Sep-26 12:53  m  03 19 20.918769 -54 35 10.11889
 2018-Sep-26 12:54  m  03 19 20.892664 -54 35 09.87771
 2018-Sep-26 12:55  m  03 19 20.866550 -54 35 09.63605
 2018-Sep-26 12:56  m  03 19 20.840427 -54 35 09.39390
 2018-Sep-26 12:57  m  03 19 20.814294 -54 35 09.15126
 2018-Sep-26 12:58  m  03 19 20.788152 -54 35 08.90814
 2018-Sep-26 12:59  m  03 19 20.762001 -54 35 08.66453
 2018-Sep-26 13:00  m  03 19 20.735842 -54 35 08.42044
 2018-Sep-26 13:01  m  03 19 20.709675 -54 35 08.17586
 2018-Sep-26 13:02  m  03 19 20.683500 -54 35 07.93079
 2018-Sep-26 13:03  m  03 19 20.657318 -54 35 07.68523
 2018-Sep-26 13:04  m  03 19 20.631128 -54 35 07.43919
 2018-Sep-26 13:05  m  03 19 20.604932 -54 35 07.19266
 2018-Sep-26 13:06  m  03 19 20.578729 -54 35 06.94564
 2018-Sep-26 13:07  m  03 19 20.552519 -54 35 06.69813
 2018-Sep-26 13:08  m  03 19 20.526304 -54 35 06.45014
 2018-Sep-26 13:09  m  03 19 20.500083 -54 35 06.20166
 2018-Sep-26 13:10  m  03 19 20.473856 -54 35 05.95269
 2018-Sep-26 13:11  m  03 19 20.447625 -54 35 05.70323
 2018-Sep-26 13:12  m  03 19 20.421388 -54 35 05.45329
 2018-Sep-26 13:13  m  03 19 20.395147 -54 35 05.20285
 2018-Sep-26 13:14  m  03 19 20.368902 -54 35 04.95193
 2018-Sep-26 13:15  m  03 19 20.342653 -54 35 04.70052
 2018-Sep-26 13:16  m  03 19 20.316400 -54 35 04.44862
 2018-Sep-26 13:17  m  03 19 20.290143 -54 35 04.19623
 2018-Sep-26 13:18  m  03 19 20.263884 -54 35 03.94336
 2018-Sep-26 13:19  m  03 19 20.237622 -54 35 03.69000
 2018-Sep-26 13:20  m  03 19 20.211357 -54 35 03.43614
 2018-Sep-26 13:21  t  03 19 20.185090 -54 35 03.18180
 2018-Sep-26 13:22  m  03 19 20.158822 -54 35 02.92698
 2018-Sep-26 13:23  m  03 19 20.132551 -54 35 02.67166
 2018-Sep-26 13:24  m  03 19 20.106280 -54 35 02.41585
 2018-Sep-26 13:25  m  03 19 20.080007 -54 35 02.15956
 2018-Sep-26 13:26  m  03 19 20.053734 -54 35 01.90278
 2018-Sep-26 13:27  m  03 19 20.027460 -54 35 01.64551
 2018-Sep-26 13:28  m  03 19 20.001187 -54 35 01.38775
 2018-Sep-26 13:29  m  03 19 19.974913 -54 35 01.12951
 2018-Sep-26 13:30  m  03 19 19.948640 -54 35 00.87077
 2018-Sep-26 13:31  m  03 19 19.922367 -54 35 00.61155
 2018-Sep-26 13:32  m  03 19 19.896096 -54 35 00.35184
 2018-Sep-26 13:33  m  03 19 19.869826 -54 35 00.09165
 2018-Sep-26 13:34  m  03 19 19.843558 -54 34 59.83096
 2018-Sep-26 13:35  m  03 19 19.817291 -54 34 59.56979
 2018-Sep-26 13:36  m  03 19 19.791027 -54 34 59.30813
 2018-Sep-26 13:37  m  03 19 19.764766 -54 34 59.04599
 2018-Sep-26 13:38  m  03 19 19.738507 -54 34 58.78335
 2018-Sep-26 13:39  m  03 19 19.712251 -54 34 58.52023
 2018-Sep-26 13:40  m  03 19 19.685999 -54 34 58.25663
 2018-Sep-26 13:41  m  03 19 19.659751 -54 34 57.99254
 2018-Sep-26 13:42  m  03 19 19.633506 -54 34 57.72796
 2018-Sep-26 13:43  m  03 19 19.607266 -54 34 57.46290
 2018-Sep-26 13:44  m  03 19 19.581031 -54 34 57.19735
 2018-Sep-26 13:45  m  03 19 19.554800 -54 34 56.93131
 2018-Sep-26 13:46  m  03 19 19.528574 -54 34 56.66479
 2018-Sep-26 13:47  m  03 19 19.502354 -54 34 56.39779
 2018-Sep-26 13:48  m  03 19 19.476140 -54 34 56.13030
 2018-Sep-26 13:49  m  03 19 19.449932 -54 34 55.86232
 2018-Sep-26 13:50  m  03 19 19.423730 -54 34 55.59386
 2018-Sep-26 13:51  m  03 19 19.397535 -54 34 55.32492
 2018-Sep-26 13:52  m  03 19 19.371347 -54 34 55.05549
 2018-Sep-26 13:53  m  03 19 19.345166 -54 34 54.78558
 2018-Sep-26 13:54  m  03 19 19.318992 -54 34 54.51519
 2018-Sep-26 13:55  m  03 19 19.292827 -54 34 54.24432
 2018-Sep-26 13:56  m  03 19 19.266669 -54 34 53.97296
 2018-Sep-26 13:57  m  03 19 19.240520 -54 34 53.70112
 2018-Sep-26 13:58  m  03 19 19.214379 -54 34 53.42880
 2018-Sep-26 13:59  m  03 19 19.188248 -54 34 53.15599
 2018-Sep-26 14:00  m  03 19 19.162126 -54 34 52.88271
 2018-Sep-26 14:01  m  03 19 19.136013 -54 34 52.60895
 2018-Sep-26 14:02  m  03 19 19.109910 -54 34 52.33470
 2018-Sep-26 14:03  m  03 19 19.083817 -54 34 52.05998
 2018-Sep-26 14:04  m  03 19 19.057735 -54 34 51.78477
 2018-Sep-26 14:05  m  03 19 19.031664 -54 34 51.50909
 2018-Sep-26 14:06  m  03 19 19.005603 -54 34 51.23293
 2018-Sep-26 14:07  m  03 19 18.979554 -54 34 50.95629
 2018-Sep-26 14:08  m  03 19 18.953516 -54 34 50.67917
 2018-Sep-26 14:09  m  03 19 18.927491 -54 34 50.40158
 2018-Sep-26 14:10  m  03 19 18.901477 -54 34 50.12351
 2018-Sep-26 14:11  m  03 19 18.875476 -54 34 49.84496
 2018-Sep-26 14:12  m  03 19 18.849487 -54 34 49.56593
 2018-Sep-26 14:13  m  03 19 18.823512 -54 34 49.28643
 2018-Sep-26 14:14  m  03 19 18.797550 -54 34 49.00646
 2018-Sep-26 14:15  m  03 19 18.771602 -54 34 48.72601
 2018-Sep-26 14:16  m  03 19 18.745667 -54 34 48.44509
 2018-Sep-26 14:17  m  03 19 18.719747 -54 34 48.16369
 2018-Sep-26 14:18  m  03 19 18.693841 -54 34 47.88182
 2018-Sep-26 14:19  m  03 19 18.667949 -54 34 47.59948
 2018-Sep-26 14:20  m  03 19 18.642073 -54 34 47.31667
 2018-Sep-26 14:21  m  03 19 18.616212 -54 34 47.03338
 2018-Sep-26 14:22  m  03 19 18.590367 -54 34 46.74962
 2018-Sep-26 14:23  m  03 19 18.564538 -54 34 46.46540
 2018-Sep-26 14:24  m  03 19 18.538725 -54 34 46.18070
 2018-Sep-26 14:25  m  03 19 18.512928 -54 34 45.89554
 2018-Sep-26 14:26  m  03 19 18.487148 -54 34 45.60991
 2018-Sep-26 14:27  m  03 19 18.461385 -54 34 45.32380
 2018-Sep-26 14:28  m  03 19 18.435639 -54 34 45.03724
 2018-Sep-26 14:29  m  03 19 18.409911 -54 34 44.75020
 2018-Sep-26 14:30  m  03 19 18.384200 -54 34 44.46270
 2018-Sep-26 14:31  m  03 19 18.358508 -54 34 44.17473
 2018-Sep-26 14:32  m  03 19 18.332834 -54 34 43.88630
 2018-Sep-26 14:33  m  03 19 18.307179 -54 34 43.59741
 2018-Sep-26 14:34  m  03 19 18.281543 -54 34 43.30805
 2018-Sep-26 14:35  m  03 19 18.255927 -54 34 43.01823
 2018-Sep-26 14:36  m  03 19 18.230329 -54 34 42.72795
 2018-Sep-26 14:37  m  03 19 18.204752 -54 34 42.43720
 2018-Sep-26 14:38  m  03 19 18.179194 -54 34 42.14600
